[{"OBJECT_NAME":"STARS-AO","OBJECT_ID":"2018-084J","EPOCH":"2026-03-09T20:00:51.608160","MEAN_MOTION":15.15819992,"ECCENTRICITY":0.00030362,"INCLINATION":98.062,"RA_OF_ASC_NODE":276.6974,"ARG_OF_PERICENTER":126.1891,"MEAN_ANOMALY":233.9621,"EPHEMERIS_TYPE":0,"CLASSIFICATION_TYPE":"U","NORAD_CAT_ID":43679,"ELEMENT_SET_NO":999,"REV_AT_EPOCH":40241,"BSTAR":0.00043170347,"MEAN_MOTION_DOT":8.179e-5,"MEAN_MOTION_DDOT":0},{"OBJECT_NAME":"STARLINK-3711","OBJECT_ID":"2022-029AV","EPOCH":"2026-03-09T23:28:15.759552","MEAN_MOTION":15.14150134,"ECCENTRICITY":6.042e-5,"INCLINATION":53.2142,"RA_OF_ASC_NODE":66.1332,"ARG_OF_PERICENTER":49.6209,"MEAN_ANOMALY":310.4839,"EPHEMERIS_TYPE":0,"CLASSIFICATION_TYPE":"U","NORAD_CAT_ID":52131,"ELEMENT_SET_NO":999,"REV_AT_EPOCH":22100,"BSTAR":0.0018381126,"MEAN_MOTION_DOT":0.00033758,"MEAN_MOTION_DDOT":0}]
